{
  "type": "FeatureCollection",
  "features": [
    {
      "type": "Feature",
      "properties": {
        "norad_id": 24946,
        "name": "IRIDIUM 33",
        "group": "iridium-33-debris",
        "lat": 74.8268658769294,
        "lon": -125.94857543180977,
        "alt_km": 767.8918169684794,
        "timestamp": "2025-12-14T09:36:23.422935+00:00",
        "meta_object_name": "IRIDIUM 33",
        "meta_object_id": "1997-051C",
        "meta_epoch": "2025-12-13T16:23:05.671392",
        "meta_mean_motion": 14.35038386,
        "meta_eccentricity": 0.00071379,
        "meta_inclination": 86.3869,
        "meta_ra_of_asc_node": 67.8258,
        "meta_arg_of_pericenter": 196.9578,
        "meta_mean_anomaly": 163.138,
        "meta_ephemeris_type": 0,
        "meta_classification_type": "U",
        "meta_norad_cat_id": 24946,
        "meta_element_set_no": 999,
        "meta_rev_at_epoch": 47848,
        "meta_bstar": 0.00016842772,
        "meta_mean_motion_dot": 4.99e-06,
        "meta_mean_motion_ddot": 0,
        "tle_line1": "1 24946U 97051C   25347.68270453  .00000499  00000+0  16843-3 0  9999",
        "tle_line2": "2 24946  86.3869  67.8258 0007137 196.9578 163.1380 14.35038386478480"
      },
      "geometry": {
        "type": "Point",
        "coordinates": [
          -125.94857543180977,
          74.8268658769294
        ]
      }
    },
    {
      "type": "Feature",
      "properties": {
        "norad_id": 33773,
        "name": "IRIDIUM 33 DEB",
        "group": "iridium-33-debris",
        "lat": 68.8686978995307,
        "lon": -129.48663221733497,
        "alt_km": 733.4356065902921,
        "timestamp": "2025-12-14T09:36:23.422960+00:00",
        "meta_object_name": "IRIDIUM 33 DEB",
        "meta_object_id": "1997-051L",
        "meta_epoch": "2025-12-13T16:27:19.396224",
        "meta_mean_motion": 14.43259986,
        "meta_eccentricity": 0.00125418,
        "meta_inclination": 86.4008,
        "meta_ra_of_asc_node": 60.1886,
        "meta_arg_of_pericenter": 143.6419,
        "meta_mean_anomaly": 216.5636,
        "meta_ephemeris_type": 0,
        "meta_classification_type": "U",
        "meta_norad_cat_id": 33773,
        "meta_element_set_no": 999,
        "meta_rev_at_epoch": 88361,
        "meta_bstar": 0.0004498521,
        "meta_mean_motion_dot": 1.534e-05,
        "meta_mean_motion_ddot": 0,
        "tle_line1": "1 33773U 97051L   25347.68564116  .00001534  00000+0  44985-3 0  9998",
        "tle_line2": "2 33773  86.4008  60.1886 0012541 143.6419 216.5636 14.43259986883617"
      },
      "geometry": {
        "type": "Point",
        "coordinates": [
          -129.48663221733497,
          68.8686978995307
        ]
      }
    },
    {
      "type": "Feature",
      "properties": {
        "norad_id": 33775,
        "name": "IRIDIUM 33 DEB",
        "group": "iridium-33-debris",
        "lat": -3.906114783429928,
        "lon": -130.90629742965757,
        "alt_km": 748.7219784578965,
        "timestamp": "2025-12-14T09:36:23.422976+00:00",
        "meta_object_name": "IRIDIUM 33 DEB",
        "meta_object_id": "1997-051N",
        "meta_epoch": "2025-12-13T16:41:11.169024",
        "meta_mean_motion": 14.41471207,
        "meta_eccentricity": 0.00143873,
        "meta_inclination": 86.3637,
        "meta_ra_of_asc_node": 49.1458,
        "meta_arg_of_pericenter": 151.6847,
        "meta_mean_anomaly": 335.8707,
        "meta_ephemeris_type": 0,
        "meta_classification_type": "U",
        "meta_norad_cat_id": 33775,
        "meta_element_set_no": 999,
        "meta_rev_at_epoch": 88154,
        "meta_bstar": 0.00045297198,
        "meta_mean_motion_dot": 1.49e-05,
        "meta_mean_motion_ddot": 0,
        "tle_line1": "1 33775U 97051N   25347.69526816  .00001490  00000+0  45297-3 0  9994",
        "tle_line2": "2 33775  86.3637  49.1458 0014387 151.6847 335.8707 14.41471207881546"
      },
      "geometry": {
        "type": "Point",
        "coordinates": [
          -130.90629742965757,
          -3.906114783429928
        ]
      }
    },
    {
      "type": "Feature",
      "properties": {
        "norad_id": 33776,
        "name": "IRIDIUM 33 DEB",
        "group": "iridium-33-debris",
        "lat": 33.83333637569497,
        "lon": 82.4946149391894,
        "alt_km": 771.2756511840544,
        "timestamp": "2025-12-14T09:36:23.422988+00:00",
        "meta_object_name": "IRIDIUM 33 DEB",
        "meta_object_id": "1997-051P",
        "meta_epoch": "2025-12-13T15:39:27.529344",
        "meta_mean_motion": 14.38237164,
        "meta_eccentricity": 0.00144453,
        "meta_inclination": 86.4038,
        "meta_ra_of_asc_node": 80.3927,
        "meta_arg_of_pericenter": 187.3853,
        "meta_mean_anomaly": 296.9447,
        "meta_ephemeris_type": 0,
        "meta_classification_type": "U",
        "meta_norad_cat_id": 33776,
        "meta_element_set_no": 999,
        "meta_rev_at_epoch": 88095,
        "meta_bstar": 0.00040992864,
        "meta_mean_motion_dot": 1.266e-05,
        "meta_mean_motion_ddot": 0,
        "tle_line1": "1 33776U 97051P   25347.65240196  .00001266  00000+0  40993-3 0  9994",
        "tle_line2": "2 33776  86.4038  80.3927 0014445 187.3853 296.9447 14.38237164880959"
      },
      "geometry": {
        "type": "Point",
        "coordinates": [
          82.4946149391894,
          33.83333637569497
        ]
      }
    },
    {
      "type": "Feature",
      "properties": {
        "norad_id": 33777,
        "name": "IRIDIUM 33 DEB",
        "group": "iridium-33-debris",
        "lat": -74.02563503609619,
        "lon": 21.700271339142798,
        "alt_km": 712.0393196293344,
        "timestamp": "2025-12-14T09:36:23.422999+00:00",
        "meta_object_name": "IRIDIUM 33 DEB",
        "meta_object_id": "1997-051Q",
        "meta_epoch": "2025-12-13T15:47:59.127936",
        "meta_mean_motion": 14.55625093,
        "meta_eccentricity": 0.00052146,
        "meta_inclination": 86.3788,
        "meta_ra_of_asc_node": 34.8038,
        "meta_arg_of_pericenter": 244.6172,
        "meta_mean_anomaly": 115.4496,
        "meta_ephemeris_type": 0,
        "meta_classification_type": "U",
        "meta_norad_cat_id": 33777,
        "meta_element_set_no": 999,
        "meta_rev_at_epoch": 88547,
        "meta_bstar": 0.0010882245,
        "meta_mean_motion_dot": 4.769e-05,
        "meta_mean_motion_ddot": 0,
        "tle_line1": "1 33777U 97051Q   25347.65832324  .00004769  00000+0  10882-2 0  9999",
        "tle_line2": "2 33777  86.3788  34.8038 0005214 244.6172 115.4496 14.55625093885475"
      },
      "geometry": {
        "type": "Point",
        "coordinates": [
          21.700271339142798,
          -74.02563503609619
        ]
      }
    },
    {
      "type": "Feature",
      "properties": {
        "norad_id": 33850,
        "name": "IRIDIUM 33 DEB",
        "group": "iridium-33-debris",
        "lat": 11.183227637572537,
        "lon": -151.25885446977682,
        "alt_km": 744.3278607380071,
        "timestamp": "2025-12-14T09:36:23.423011+00:00",
        "meta_object_name": "IRIDIUM 33 DEB",
        "meta_object_id": "1997-051T",
        "meta_epoch": "2025-12-13T15:03:41.991840",
        "meta_mean_motion": 14.42148428,
        "meta_eccentricity": 0.00123288,
        "meta_inclination": 86.3417,
        "meta_ra_of_asc_node": 29.798,
        "meta_arg_of_pericenter": 158.2918,
        "meta_mean_anomaly": 321.2422,
        "meta_ephemeris_type": 0,
        "meta_classification_type": "U",
        "meta_norad_cat_id": 33850,
        "meta_element_set_no": 999,
        "meta_rev_at_epoch": 88165,
        "meta_bstar": 0.00041544855,
        "meta_mean_motion_dot": 1.387e-05,
        "meta_mean_motion_ddot": 0,
        "tle_line1": "1 33850U 97051T   25347.62756935  .00001387  00000+0  41545-3 0  9995",
        "tle_line2": "2 33850  86.3417  29.7980 0012328 158.2918 321.2422 14.42148428881657"
      },
      "geometry": {
        "type": "Point",
        "coordinates": [
          -151.25885446977682,
          11.183227637572537
        ]
      }
    },
    {
      "type": "Feature",
      "properties": {
        "norad_id": 33853,
        "name": "IRIDIUM 33 DEB",
        "group": "iridium-33-debris",
        "lat": -63.05650730295577,
        "lon": -18.82904922254043,
        "alt_km": 840.4739340735669,
        "timestamp": "2025-12-14T09:36:23.423023+00:00",
        "meta_object_name": "IRIDIUM 33 DEB",
        "meta_object_id": "1997-051W",
        "meta_epoch": "2025-12-13T12:11:23.722944",
        "meta_mean_motion": 13.99070618,
        "meta_eccentricity": 0.02069945,
        "meta_inclination": 85.9998,
        "meta_ra_of_asc_node": 349.4749,
        "meta_arg_of_pericenter": 233.4348,
        "meta_mean_anomaly": 249.363,
        "meta_ephemeris_type": 0,
        "meta_classification_type": "U",
        "meta_norad_cat_id": 33853,
        "meta_element_set_no": 999,
        "meta_rev_at_epoch": 85356,
        "meta_bstar": 0.0028151646,
        "meta_mean_motion_dot": 4.91e-05,
        "meta_mean_motion_ddot": 0,
        "tle_line1": "1 33853U 97051W   25347.50791346  .00004910  00000+0  28152-2 0  9993",
        "tle_line2": "2 33853  85.9998 349.4749 0206994 233.4348 249.3630 13.99070618853567"
      },
      "geometry": {
        "type": "Point",
        "coordinates": [
          -18.82904922254043,
          -63.05650730295577
        ]
      }
    }
  ]
}